FENGYUN 1C DEB          
1 32216U 99025CVN 17342.88411854  .00001067  00000-0  40117-3 0  9995
2 32216  99.5658   4.5646 0055449 176.7349 183.4205 14.33112026538874
